[{"OBJECT_NAME":"STARLINK-3283","OBJECT_ID":"2021-125Z","EPOCH":"2026-03-09T18:11:25.266048","MEAN_MOTION":15.08840028,"ECCENTRICITY":0.00013889,"INCLINATION":53.2162,"RA_OF_ASC_NODE":248.8158,"ARG_OF_PERICENTER":85.0963,"MEAN_ANOMALY":275.0188,"EPHEMERIS_TYPE":0,"CLASSIFICATION_TYPE":"U","NORAD_CAT_ID":50179,"ELEMENT_SET_NO":999,"REV_AT_EPOCH":23661,"BSTAR":4.82273e-7,"MEAN_MOTION_DOT":-2.8e-6,"MEAN_MOTION_DDOT":0},{"OBJECT_NAME":"STEP 2","OBJECT_ID":"1994-029A","EPOCH":"2026-03-09T19:35:47.124096","MEAN_MOTION":14.90069818,"ECCENTRICITY":0.0082455,"INCLINATION":81.9356,"RA_OF_ASC_NODE":275.268,"ARG_OF_PERICENTER":225.1907,"MEAN_ANOMALY":134.2589,"EPHEMERIS_TYPE":0,"CLASSIFICATION_TYPE":"U","NORAD_CAT_ID":23105,"ELEMENT_SET_NO":999,"REV_AT_EPOCH":70508,"BSTAR":0.00037800709,"MEAN_MOTION_DOT":3.917e-5,"MEAN_MOTION_DDOT":0}]
